IRIDIUM 112             
1 41925U 17003J   25225.94275721 -.00000009  00000+0 -10360-4 0  9999
2 41925  86.3964 216.6288 0002204  86.1443 274.0005 14.34217451449238
IRIDIUM 111             
1 41926U 17003K   25225.93007057  .00000043  00000+0  82279-5 0  9999
2 41926  86.3959 216.6975 0002220  92.1482 267.9968 14.34217656449218
IRIDIUM 113             
1 42803U 17039A   25225.91003379  .00000087  00000+0  24135-4 0  9998
2 42803  86.3933  90.6312 0002072  80.7877 279.3554 14.34218781427142
IRIDIUM 123             
1 42804U 17039B   25225.95151508  .00000030  00000+0  37566-5 0  9992
2 42804  86.3984 122.0987 0001927  91.4031 268.7385 14.34217605425917
IRIDIUM 120             
1 42805U 17039C   25225.90369402  .00000195  00000+0  62512-4 0  9992
2 42805  86.3923  90.4559 0002224  93.5200 266.6250 14.34217413427137
IRIDIUM 115             
1 42806U 17039D   25225.91362348  .00000294  00000+0  81472-4 0  9992
2 42806  86.4459  90.5385 0001833 105.0098 255.1305 14.43280347429941
IRIDIUM 118             
1 42807U 17039E   25225.77391872  .00000182  00000+0  58015-4 0  9994
2 42807  86.3984 122.1723 0002108  79.0221 281.1211 14.34219792425886
IRIDIUM 117             
1 42808U 17039F   25225.79295014 -.00000036  00000+0 -19888-4 0  9993
2 42808  86.3984 122.1246 0001801  86.3753 273.7649 14.34217283425916
